start=new Date('2022-04-19T00:00:00.000Z').valueOf();
sats=[{"DECAY_DATE":null,"EPOCH":"2022-04-18T22:00:00.999936","CENTER_NAME":"EARTH","OBJECT_TYPE":"PAYLOAD","TLE_LINE1":"1 50177U 21125X   22108.91667824  .00037361  00000-0  23547-2 0  9990","MEAN_MOTION_DOT":"0.00037361","REV_AT_EPOCH":"360","ARG_OF_PERICENTER":"31.6280","COUNTRY_CODE":"US","ELEMENT_SET_NO":"999","MEAN_MOTION":"15.08814849","MEAN_MOTION_DDOT":"0.0000000000000","ECCENTRICITY":"0.00022740","NORAD_CAT_ID":"50177","SITE":"AFWTR","RA_OF_ASC_NODE":"147.2199","LAUNCH_DATE":"2021-12-18","EPHEMERIS_TYPE":"0","GP_ID":"201581643","OBJECT_NAME":"STARLINK-3282","SEMIMAJOR_AXIS":"6917.957","CLASSIFICATION_TYPE":"U","TIME_SYSTEM":"UTC","REF_FRAME":"TEME","PERIAPSIS":"538.249","RCS_SIZE":"LARGE","TLE_LINE2":"2 50177  53.2153 147.2199 0002274  31.6280 333.6065 15.08814849  3602","MEAN_ELEMENT_THEORY":"SGP4","OBJECT_ID":"2021-125X","PERIOD":"95.439","BSTAR":"0.00235470000000","APOAPSIS":"541.395","INCLINATION":"53.2153","FILE":"3407402","MEAN_ANOMALY":"333.6065"},{"MEAN_ANOMALY":"189.2197","FILE":"3407402","INCLINATION":"53.2135","APOAPSIS":"541.017","BSTAR":"0.00020089000000","PERIOD":"95.438","OBJECT_ID":"2021-125Y","MEAN_ELEMENT_THEORY":"SGP4","TLE_LINE2":"2 50178  53.2135 147.2182 0001827  35.9343 189.2197 15.08837626  3592","RCS_SIZE":"LARGE","PERIAPSIS":"538.489","REF_FRAME":"TEME","TIME_SYSTEM":"UTC","CLASSIFICATION_TYPE":"U","SEMIMAJOR_AXIS":"6917.888","OBJECT_NAME":"STARLINK-3284","GP_ID":"201581894","EPHEMERIS_TYPE":"0","LAUNCH_DATE":"2021-12-18","RA_OF_ASC_NODE":"147.2182","SITE":"AFWTR","NORAD_CAT_ID":"50178","ECCENTRICITY":"0.00018270","MEAN_MOTION_DDOT":"0.0000000000000","MEAN_MOTION":"15.08837626","ELEMENT_SET_NO":"999","COUNTRY_CODE":"US","ARG_OF_PERICENTER":"35.9343","REV_AT_EPOCH":"359","MEAN_MOTION_DOT":"0.00002910","TLE_LINE1":"1 50178U 21125Y   22108.91667824  .00002910  00000-0  20089-3 0  9992","OBJECT_TYPE":"PAYLOAD","EPOCH":"2022-04-18T22:00:00.999936","CENTER_NAME":"EARTH","DECAY_DATE":null},{"DECAY_DATE":null,"CENTER_NAME":"EARTH","EPOCH":"2022-04-18T22:00:00.999936","TLE_LINE1":"1 50179U 21125Z   22108.91667824  .00032939  00000-0  20780-2 0  9994","OBJECT_TYPE":"PAYLOAD","MEAN_MOTION_DOT":"0.00032939","ARG_OF_PERICENTER":"39.0499","REV_AT_EPOCH":"2163","ELEMENT_SET_NO":"999","COUNTRY_CODE":"US","MEAN_MOTION_DDOT":"0.0000000000000","MEAN_MOTION":"15.08839902","ECCENTRICITY":"0.00024610","SITE":"AFWTR","NORAD_CAT_ID":"50179","RA_OF_ASC_NODE":"147.2114","EPHEMERIS_TYPE":"0","LAUNCH_DATE":"2021-12-18","OBJECT_NAME":"STARLINK-3283","GP_ID":"201557665","CLASSIFICATION_TYPE":"U","TIME_SYSTEM":"UTC","SEMIMAJOR_AXIS":"6917.881","PERIAPSIS":"538.043","REF_FRAME":"TEME","RCS_SIZE":"LARGE","TLE_LINE2":"2 50179  53.2169 147.2114 0002461  39.0499   6.1074 15.08839902 21632","MEAN_ELEMENT_THEORY":"SGP4","PERIOD":"95.438","OBJECT_ID":"2021-125Z","APOAPSIS":"541.448","BSTAR":"0.00207800000000","INCLINATION":"53.2169","FILE":"3407352","MEAN_ANOMALY":"6.1074"},{"MEAN_ELEMENT_THEORY":"SGP4","OBJECT_ID":"2021-125AA","PERIOD":"95.439","REF_FRAME":"TEME","PERIAPSIS":"538.215","RCS_SIZE":"LARGE","TLE_LINE2":"2 50180  53.2166 147.2096 0002300  25.6309  99.6088 15.08820045  3565","FILE":"3407402","MEAN_ANOMALY":"99.6088","BSTAR":"0.00206900000000","APOAPSIS":"541.398","INCLINATION":"53.2166","REV_AT_EPOCH":"356","ARG_OF_PERICENTER":"25.6309","COUNTRY_CODE":"US","ELEMENT_SET_NO":"999","MEAN_MOTION":"15.08820045","MEAN_MOTION_DDOT":"0.0000000000000","DECAY_DATE":null,"CENTER_NAME":"EARTH","EPOCH":"2022-04-18T22:00:00.999936","OBJECT_TYPE":"PAYLOAD","TLE_LINE1":"1 50180U 21125AA  22108.91667824  .00032776  00000-0  20690-2 0  9995","MEAN_MOTION_DOT":"0.00032776","LAUNCH_DATE":"2021-12-18","EPHEMERIS_TYPE":"0","GP_ID":"201580893","OBJECT_NAME":"STARLINK-3265","SEMIMAJOR_AXIS":"6917.941","CLASSIFICATION_TYPE":"U","TIME_SYSTEM":"UTC","ECCENTRICITY":"0.00023000","NORAD_CAT_ID":"50180","SITE":"AFWTR","RA_OF_ASC_NODE":"147.2096"},{"MEAN_ANOMALY":"133.7703","FILE":"3407402","APOAPSIS":"541.190","BSTAR":"0.00086656000000","INCLINATION":"53.2148","PERIOD":"95.438","OBJECT_ID":"2021-125AB","MEAN_ELEMENT_THEORY":"SGP4","RCS_SIZE":"LARGE","TLE_LINE2":"2 50181  53.2148 147.2044 0002023  31.4288 133.7703 15.08825373  3600","PERIAPSIS":"538.391","REF_FRAME":"TEME","OBJECT_NAME":"STARLINK-3285","GP_ID":"201581143","TIME_SYSTEM":"UTC","CLASSIFICATION_TYPE":"U","SEMIMAJOR_AXIS":"6917.925","EPHEMERIS_TYPE":"0","LAUNCH_DATE":"2021-12-18","SITE":"AFWTR","NORAD_CAT_ID":"50181","RA_OF_ASC_NODE":"147.2044","ECCENTRICITY":"0.00020230","MEAN_MOTION_DDOT":"0.0000000000000","MEAN_MOTION":"15.08825373","ARG_OF_PERICENTER":"31.4288","REV_AT_EPOCH":"360","ELEMENT_SET_NO":"999","COUNTRY_CODE":"US","TLE_LINE1":"1 50181U 21125AB  22108.91667824  .00013525  00000-0  86656-3 0  9992","OBJECT_TYPE":"PAYLOAD","MEAN_MOTION_DOT":"0.00013525","DECAY_DATE":null,"EPOCH":"2022-04-18T22:00:00.999936","CENTER_NAME":"EARTH"},{"REF_FRAME":"TEME","PERIAPSIS":"538.235","TLE_LINE2":"2 50182  53.2155 147.2041 0002183  34.3637 170.7958 15.08840144  3564","RCS_SIZE":"LARGE","MEAN_ELEMENT_THEORY":"SGP4","OBJECT_ID":"2021-125AC","PERIOD":"95.438","INCLINATION":"53.2155","BSTAR":"0.00004399600000","APOAPSIS":"541.255","FILE":"3407402","MEAN_ANOMALY":"170.7958","EPOCH":"2022-04-18T22:00:00.999936","CENTER_NAME":"EARTH","DECAY_DATE":null,"MEAN_MOTION_DOT":"0.00000412","OBJECT_TYPE":"PAYLOAD","TLE_LINE1":"1 50182U 21125AC  22108.91667824  .00000412  00000-0  43996-4 0  9995","COUNTRY_CODE":"US","ELEMENT_SET_NO":"999","REV_AT_EPOCH":"356","ARG_OF_PERICENTER":"34.3637","MEAN_MOTION":"15.08840144","MEAN_MOTION_DDOT":"0.0000000000000","ECCENTRICITY":"0.00021830","RA_OF_ASC_NODE":"147.2041","NORAD_CAT_ID":"50182","SITE":"AFWTR","LAUNCH_DATE":"2021-12-18","EPHEMERIS_TYPE":"0","SEMIMAJOR_AXIS":"6917.880","CLASSIFICATION_TYPE":"U","TIME_SYSTEM":"UTC","GP_ID":"201582395","OBJECT_NAME":"STARLINK-3277"},{"SEMIMAJOR_AXIS":"6917.957","TIME_SYSTEM":"UTC","CLASSIFICATION_TYPE":"U","GP_ID":"201582646","OBJECT_NAME":"STARLINK-3281","LAUNCH_DATE":"2021-12-18","EPHEMERIS_TYPE":"0","RA_OF_ASC_NODE":"147.2069","NORAD_CAT_ID":"50183","SITE":"AFWTR","ECCENTRICITY":"0.00022650","MEAN_MOTION":"15.08814937","MEAN_MOTION_DDOT":"0.0000000000000","COUNTRY_CODE":"US","ELEMENT_SET_NO":"999","REV_AT_EPOCH":"359","ARG_OF_PERICENTER":"26.9693","MEAN_MOTION_DOT":"0.00033202","OBJECT_TYPE":"PAYLOAD","TLE_LINE1":"1 50183U 21125AD  22108.91667824  .00033202  00000-0  20958-2 0  9990","EPOCH":"2022-04-18T22:00:00.999936","CENTER_NAME":"EARTH","DECAY_DATE":null,"MEAN_ANOMALY":"158.2679","FILE":"3407402","INCLINATION":"53.2161","BSTAR":"0.00209580000000","APOAPSIS":"541.389","OBJECT_ID":"2021-125AD","PERIOD":"95.439","MEAN_ELEMENT_THEORY":"SGP4","TLE_LINE2":"2 50183  53.2161 147.2069 0002265  26.9693 158.2679 15.08814937  3597","RCS_SIZE":"LARGE","REF_FRAME":"TEME","PERIAPSIS":"538.255"},{"ECCENTRICITY":"0.00022230","RA_OF_ASC_NODE":"147.2089","NORAD_CAT_ID":"50185","SITE":"AFWTR","LAUNCH_DATE":"2021-12-18","EPHEMERIS_TYPE":"0","SEMIMAJOR_AXIS":"6917.899","TIME_SYSTEM":"UTC","CLASSIFICATION_TYPE":"U","GP_ID":"201581394","OBJECT_NAME":"STARLINK-3279","CENTER_NAME":"EARTH","EPOCH":"2022-04-18T22:00:00.999936","DECAY_DATE":null,"MEAN_MOTION_DOT":"-0.00002383","OBJECT_TYPE":"PAYLOAD","TLE_LINE1":"1 50185U 21125AF  22108.91667824 -.00002383  00000-0 -13166-3 0  9994","COUNTRY_CODE":"US","ELEMENT_SET_NO":"999","REV_AT_EPOCH":"356","ARG_OF_PERICENTER":"33.0333","MEAN_MOTION":"15.08834043","MEAN_MOTION_DDOT":"0.0000000000000","INCLINATION":"53.2166","BSTAR":"-0.00013166000000","APOAPSIS":"541.301","FILE":"3407402","MEAN_ANOMALY":"112.1576","REF_FRAME":"TEME","PERIAPSIS":"538.226","TLE_LINE2":"2 50185  53.2166 147.2089 0002223  33.0333 112.1576 15.08834043  3562","RCS_SIZE":"LARGE","MEAN_ELEMENT_THEORY":"SGP4","OBJECT_ID":"2021-125AF","PERIOD":"95.438"},{"ELEMENT_SET_NO":"999","COUNTRY_CODE":"US","ARG_OF_PERICENTER":"28.9810","REV_AT_EPOCH":"357","MEAN_MOTION_DDOT":"0.0000000000000","MEAN_MOTION":"15.08833776","EPOCH":"2022-04-18T22:00:00.999936","CENTER_NAME":"EARTH","DECAY_DATE":null,"MEAN_MOTION_DOT":"0.00022489","TLE_LINE1":"1 50186U 21125AG  22108.91667824  .00022489  00000-0  14268-2 0  9995","OBJECT_TYPE":"PAYLOAD","EPHEMERIS_TYPE":"0","LAUNCH_DATE":"2021-12-18","TIME_SYSTEM":"UTC","CLASSIFICATION_TYPE":"U","SEMIMAJOR_AXIS":"6917.899","OBJECT_NAME":"STARLINK-3274","GP_ID":"201581644","ECCENTRICITY":"0.00022060","RA_OF_ASC_NODE":"157.2056","SITE":"AFWTR","NORAD_CAT_ID":"50186","MEAN_ELEMENT_THEORY":"SGP4","PERIOD":"95.438","OBJECT_ID":"2021-125AG","PERIAPSIS":"538.238","REF_FRAME":"TEME","TLE_LINE2":"2 50186  53.2149 157.2056 0002206  28.9810  41.1424 15.08833776  3579","RCS_SIZE":"LARGE","FILE":"3407402","MEAN_ANOMALY":"41.1424","INCLINATION":"53.2149","APOAPSIS":"541.291","BSTAR":"0.00142680000000"},{"TLE_LINE2":"2 50187  53.2131 137.2177 0001691  40.9468 239.1639 15.08826803  3595","RCS_SIZE":"LARGE","PERIAPSIS":"538.616","REF_FRAME":"TEME","PERIOD":"95.438","OBJECT_ID":"2021-125AH","MEAN_ELEMENT_THEORY":"SGP4","INCLINATION":"53.2131","APOAPSIS":"540.956","BSTAR":"0.00271760000000","MEAN_ANOMALY":"239.1639","FILE":"3407402","MEAN_MOTION_DOT":"0.00043213","TLE_LINE1":"1 50187U 21125AH  22108.91667824  .00043213  00000-0  27176-2 0  9996","OBJECT_TYPE":"PAYLOAD","EPOCH":"2022-04-18T22:00:00.999936","CENTER_NAME":"EARTH","DECAY_DATE":null,"MEAN_MOTION_DDOT":"0.0000000000000","MEAN_MOTION":"15.08826803","ELEMENT_SET_NO":"999","COUNTRY_CODE":"US","ARG_OF_PERICENTER":"40.9468","REV_AT_EPOCH":"359","RA_OF_ASC_NODE":"137.2177","SITE":"AFWTR","NORAD_CAT_ID":"50187","ECCENTRICITY":"0.00016910","TIME_SYSTEM":"UTC","CLASSIFICATION_TYPE":"U","SEMIMAJOR_AXIS":"6917.921","OBJECT_NAME":"STARLINK-3272","GP_ID":"201581895","EPHEMERIS_TYPE":"0","LAUNCH_DATE":"2021-12-18"}];
